54793,STARLINK-5433,2025-12-13T20:46:38.790336,2025-12-14T13:04:14.456627,53.2179,44.4105,0.0001395,99.0766,261.0384,15.08829077,59671-5,16731,1 54793U 22175AM  25347.86572674 -.00000193  00000+0  59671-5 0  9997,2 54793  53.2179  44.4105 0001395  99.0766 261.0384 15.08829077167319
54795,STARLINK-5436,2025-12-13T22:04:45.535008,2025-12-14T13:04:14.456627,53.2186,53.9844,0.0001714,76.6979,283.4204,15.08852421,67880-4,16718,1 54795U 22175AP  25347.91997147  .00000793  00000+0  67880-4 0  9996,2 54795  53.2186  53.9844 0001714  76.6979 283.4204 15.08852421167189
54796,STARLINK-5415,2025-12-13T12:21:50.217984,2025-12-14T13:04:14.456627,53.2171,55.7243,0.0001331,105.5066,254.6073,15.08852331,76130-3,16712,1 54796U 22175AQ  25347.51516456  .00011853  00000+0  76130-3 0  9999,2 54796  53.2171  55.7243 0001331 105.5066 254.6073 15.08852331167129
54797,STARLINK-5435,2025-12-13T22:12:06.939648,2025-12-14T13:04:14.456627,53.2167,68.9746,0.0001374,81.8364,278.2785,15.08843001,69248-3,16697,1 54797U 22175AR  25347.92508032  .00010751  00000+0  69248-3 0  9994,2 54797  53.2167  68.9746 0001374  81.8364 278.2785 15.08843001166971
54798,STARLINK-5420,2025-12-13T13:53:14.626464,2025-12-14T13:04:14.456627,53.2179,45.4529,0.0001464,94.1641,265.9519,15.08843056,-18604-3,16727,1 54798U 22175AS  25347.57864151 -.00003248  00000+0 -18604-3 0  9998,2 54798  53.2179  45.4529 0001464  94.1641 265.9519 15.08843056167271
54799,STARLINK-5421,2025-12-13T20:41:19.633920,2025-12-14T13:04:14.456627,53.2202,44.3788,0.0001416,95.456,264.6594,15.08830983,-23622-4,16731,1 54799U 22175AT  25347.86203280 -.00000664  00000+0 -23622-4 0  9997,2 54799  53.2202  44.3788 0001416  95.4560 264.6594 15.08830983167314
54800,STARLINK-5428,2025-12-13T14:04:29.930592,2025-12-14T13:04:14.456627,53.2192,60.425,0.0001422,101.3716,258.7436,15.08855258,95973-4,16706,1 54800U 22175AU  25347.58645753  .00001240  00000+0  95973-4 0  9991,2 54800  53.2192  60.4250 0001422 101.3716 258.7436 15.08855258167068
54801,STARLINK-5429,2025-12-13T23:08:57.705792,2025-12-14T13:04:14.456627,53.2181,68.5163,0.0001421,72.7121,287.4027,15.08846585,11772-3,16698,1 54801U 22175AV  25347.96455678  .00001586  00000+0  11772-3 0  9996,2 54801  53.2181  68.5163 0001421  72.7121 287.4027 15.08846585166987
54802,STARLINK-5426,2025-12-13T08:33:54.659232,2025-12-14T13:04:14.456627,53.219,16.1412,0.0001376,87.4561,272.6589,15.08847734,68966-4,16766,1 54802U 22175AW  25347.35688263  .00000810  00000+0  68966-4 0  9995,2 54802  53.2190  16.1412 0001376  87.4561 272.6589 15.08847734167666
54803,STARLINK-5430,2025-12-13T15:27:56.875392,2025-12-14T13:04:14.456627,53.2167,70.0557,0.0001229,82.7613,277.3519,15.08851592,25189-3,16693,1 54803U 22175AX  25347.64440828  .00003724  00000+0  25189-3 0  9997,2 54803  53.2167  70.0557 0001229  82.7613 277.3519 15.08851592166934
54804,STARLINK-5422,2025-12-13T21:22:19.131744,2025-12-14T13:04:14.456627,53.2178,53.8061,0.0001079,87.7551,272.3565,15.08838289,17648-4,16718,1 54804U 22175AY  25347.89049921 -.00000007  00000+0  17648-4 0  9998,2 54804  53.2178  53.8061 0001079  87.7551 272.3565 15.08838289167187
54805,STARLINK-5417,2025-12-13T12:16:31.656000,2025-12-14T13:04:14.456627,53.2182,55.7008,0.0001494,89.1986,270.9178,15.08856676,10522-3,16712,1 54805U 22175AZ  25347.51147750  .00001388  00000+0  10522-3 0  9992,2 54805  53.2182  55.7008 0001494  89.1986 270.9178 15.08856676167122
54806,STARLINK-5412,2025-12-13T21:32:56.281632,2025-12-14T13:04:14.456627,53.2194,53.8476,0.0001112,97.3752,262.7367,15.08844177,10575-3,16718,1 54806U 22175BA  25347.89787363  .00001396  00000+0  10575-3 0  9991,2 54806  53.2194  53.8476 0001112  97.3752 262.7367 15.08844177167181
54807,STARLINK-5410,2025-12-13T21:38:14.044416,2025-12-14T13:04:14.456627,53.2176,53.8725,0.0001415,93.6222,266.4932,15.08839486,14280-3,16718,1 54807U 22175BB  25347.90155144  .00001985  00000+0  14280-3 0  9991,2 54807  53.2176  53.8725 0001415  93.6222 266.4932 15.08839486167182
54808,STARLINK-5413,2025-12-13T21:00:35.634816,2025-12-14T13:04:14.456627,53.2188,39.5288,0.0001366,86.8254,273.2894,15.08830891,23914-3,16738,1 54808U 22175BC  25347.87541244  .00003519  00000+0  23914-3 0  9997,2 54808  53.2188  39.5288 0001366  86.8254 273.2894 15.08830891167381
54809,STARLINK-5414,2025-12-13T21:27:36.864288,2025-12-14T13:04:14.456627,53.2162,53.8214,0.0001183,73.9514,286.1609,15.0883991,98531-5,16718,1 54809U 22175BD  25347.89417667 -.00000131  00000+0  98531-5 0  9998,2 54809  53.2162  53.8214 0001183  73.9514 286.1609 15.08839910167181
54810,STARLINK-5408,2025-12-13T14:00:31.024224,2025-12-14T13:04:14.456627,53.2181,50.4365,0.0001408,96.6503,263.4649,15.08857213,11701-3,16720,1 54810U 22175BE  25347.58369241  .00001576  00000+0  11701-3 0  9995,2 54810  53.2181  50.4365 0001408  96.6503 263.4649 15.08857213167205
54811,STARLINK-5424,2025-12-13T21:00:36.707904,2025-12-14T13:04:14.456627,53.2178,49.3992,0.000129,95.9212,264.1927,15.08872739,80933-3,16724,1 54811U 22175BF  25347.87542486  .00012627  00000+0  80933-3 0  9994,2 54811  53.2178  49.3992 0001290  95.9212 264.1927 15.08872739167244
54820,STARLINK-5382,2025-12-13T17:51:01.109376,2025-12-14T13:04:14.456627,43.0041,240.6148,0.0001065,270.9699,89.1021,15.02531604,43476-4,16402,1 54820U 22177A   25347.74376284  .00000384  00000+0  43476-4 0  9992,2 54820  43.0041 240.6148 0001065 270.9699  89.1021 15.02531604164023
54821,STARLINK-5385,2025-12-13T23:56:21.227424,2025-12-14T13:04:14.456627,43.0034,239.082,0.0001261,274.8411,85.2287,15.02534339,-59760-4,16406,1 54821U 22177B   25347.99746791 -.00001011  00000+0 -59760-4 0  9997,2 54821  43.0034 239.0820 0001261 274.8411  85.2287 15.02534339164061
54822,STARLINK-5101,2025-12-13T23:49:57.613152,2025-12-14T13:04:14.456627,43.0029,239.0454,9.77e-05,271.2874,88.7856,15.02532016,24386-3,16406,1 54822U 22177C   25347.99302793  .00003092  00000+0  24386-3 0  9992,2 54822  43.0029 239.0454 0000977 271.2874  88.7856 15.02532016164066
54823,STARLINK-5106,2025-12-13T17:46:13.528704,2025-12-14T13:04:14.456627,43.0016,240.5899,7.87e-05,286.378,73.6975,15.0253141,30567-4,16402,1 54823U 22177D   25347.74043436  .00000209  00000+0  30567-4 0  9998,2 54823  43.0016 240.5899 0000787 286.3780  73.6975 15.02531410164023
54824,STARLINK-4643,2025-12-13T17:41:25.860768,2025-12-14T13:04:14.456627,43.0033,240.5644,0.0001149,275.3072,84.7639,15.0253423,-92354-4,16402,1 54824U 22177E   25347.73710487 -.00001451  00000+0 -92354-4 0  9999,2 54824  43.0033 240.5644 0001149 275.3072  84.7639 15.02534230164029
54826,STARLINK-5107,2025-12-13T23:51:33.695136,2025-12-14T13:04:14.456627,43.0036,239.0549,9.57e-05,272.8473,87.2259,15.02530237,-13280-4,16406,1 54826U 22177G   25347.99413999 -.00000383  00000+0 -13280-4 0  9991,2 54826  43.0036 239.0549 0000957 272.8473  87.2259 15.02530237164067
54827,STARLINK-5383,2025-12-13T23:40:21.841824,2025-12-14T13:04:14.456627,43.0023,238.9911,0.0001181,262.2063,97.8645,15.02532062,41024-4,16407,1 54827U 22177H   25347.98636391  .00000351  00000+0  41024-4 0  9994,2 54827  43.0023 238.9911 0001181 262.2063  97.8645 15.02532062164078
54828,STARLINK-5381,2025-12-13T23:35:34.535904,2025-12-14T13:04:14.456627,43.004,238.9688,0.0001523,265.0725,94.9944,15.02529885,-76574-5,16406,1 54828U 22177J   25347.98303861 -.00000307  00000+0 -76574-5 0  9990,2 54828  43.0040 238.9688 0001523 265.0725  94.9944 15.02529885164063
54830,STARLINK-5394,2025-12-13T23:27:34.278912,2025-12-14T13:04:14.456627,43.0032,238.9251,0.0001179,271.9545,88.1163,15.02539492,46452-4,16406,1 54830U 22177L   25347.97748008  .00000424  00000+0  46452-4 0  9997,2 54830  43.0032 238.9251 0001179 271.9545  88.1163 15.02539492164069
54831,STARLINK-5395,2025-12-13T23:54:44.985600,2025-12-14T13:04:14.456627,43.0039,239.0615,7.46e-05,278.8588,81.2169,15.02534814,-20215-5,16406,1 54831U 22177M   25347.99635400 -.00000231  00000+0 -20215-5 0  9999,2 54831  43.0039 239.0615 0000746 278.8588  81.2169 15.02534814164068
54833,STARLINK-5391,2025-12-13T17:52:25.629312,2025-12-14T13:04:14.456627,42.9949,239.7667,0.0001541,268.3188,91.7479,15.06300658,76239-2,16403,1 54833U 22177P   25347.74474108  .00115585  00000+0  76239-2 0  9991,2 54833  42.9949 239.7667 0001541 268.3188  91.7479 15.06300658164034
54834,STARLINK-5386,2025-12-12T23:30:03.737952,2025-12-14T13:04:14.456627,43.005,244.3334,0.0001226,245.7124,114.359,15.02440983,12974-2,16392,1 54834U 22177Q   25346.97920993  .00017322  00000+0  12974-2 0  9990,2 54834  43.0050 244.3334 0001226 245.7124 114.3590 15.02440983163927
54835,STARLINK-5389,2025-12-13T23:32:22.908480,2025-12-14T13:04:14.456627,43.0026,238.954,9.72e-05,277.0281,83.0451,15.02515784,-11221-3,16406,1 54835U 22177R   25347.98082070 -.00001718  00000+0 -11221-3 0  9997,2 54835  43.0026 238.9540 0000972 277.0281  83.0451 15.02515784164064
54836,STARLINK-5384,2025-12-13T16:58:16.485600,2025-12-14T13:04:14.456627,43.0035,240.3351,0.0001116,272.4144,87.6571,15.02533079,46494-4,16403,1 54836U 22177S   25347.70713525  .00000424  00000+0  46494-4 0  9996,2 54836  43.0035 240.3351 0001116 272.4144  87.6571 15.02533079164037
54837,STARLINK-5369,2025-12-13T23:22:46.820928,2025-12-14T13:04:14.456627,43.003,238.9017,0.000104,273.146,86.9264,15.02538518,13562-4,16406,1 54837U 22177T   25347.97415302 -.00000020  00000+0  13562-4 0  9991,2 54837  43.0030 238.9017 0001040 273.1460  86.9264 15.02538518164067
54838,STARLINK-5372,2025-12-13T23:11:35.752992,2025-12-14T13:04:14.456627,43.0023,238.8429,0.0001045,277.8463,82.226,15.02531848,11271-3,16406,1 54838U 22177U   25347.96638603  .00001319  00000+0  11271-3 0  9997,2 54838  43.0023 238.8429 0001045 277.8463  82.2260 15.02531848164069
54840,STARLINK-5368,2025-12-13T16:35:53.724192,2025-12-14T13:04:14.456627,43.0039,240.2187,0.00011,267.1573,92.9143,15.02529289,23378-3,16402,1 54840U 22177W   25347.69159403  .00002955  00000+0  23378-3 0  9994,2 54840  43.0039 240.2187 0001100 267.1573  92.9143 15.02529289164023
